[{"OBJECT_NAME":"TIANYI D","OBJECT_ID":"2025-103D","EPOCH":"2026-03-09T23:34:58.761120","MEAN_MOTION":15.17585696,"ECCENTRICITY":0.00029978,"INCLINATION":97.3899,"RA_OF_ASC_NODE":142.5822,"ARG_OF_PERICENTER":153.0168,"MEAN_ANOMALY":207.1222,"EPHEMERIS_TYPE":0,"CLASSIFICATION_TYPE":"U","NORAD_CAT_ID":64051,"ELEMENT_SET_NO":999,"REV_AT_EPOCH":4495,"BSTAR":0.00030791157,"MEAN_MOTION_DOT":6.122e-5,"MEAN_MOTION_DDOT":0},{"OBJECT_NAME":"OKEAN-2","OBJECT_ID":"1990-018A","EPOCH":"2026-03-09T23:36:10.183680","MEAN_MOTION":15.15649196,"ECCENTRICITY":0.00049727,"INCLINATION":82.5017,"RA_OF_ASC_NODE":331.5686,"ARG_OF_PERICENTER":303.4328,"MEAN_ANOMALY":67.9927,"EPHEMERIS_TYPE":0,"CLASSIFICATION_TYPE":"U","NORAD_CAT_ID":20510,"ELEMENT_SET_NO":999,"REV_AT_EPOCH":93903,"BSTAR":0.00028442133,"MEAN_MOTION_DOT":5.437e-5,"MEAN_MOTION_DDOT":0}]
